start=new Date('2022-07-09T00:00:00.000Z').valueOf();
sats=[{"MEAN_MOTION":"15.08865086","APOAPSIS":"541.089","OBJECT_NAME":"STARLINK-3192","MEAN_ELEMENT_THEORY":"SGP4","BSTAR":"0.00036049000000","OBJECT_ID":"2021-115AV","TLE_LINE1":"1 49767U 21115AV  22189.80865565  .00005458  00000-0  36049-3 0  9995","SITE":"AFETR","TIME_SYSTEM":"UTC","SEMIMAJOR_AXIS":"6917.804","RCS_SIZE":"LARGE","NORAD_CAT_ID":"49767","REV_AT_EPOCH":"3340","ARG_OF_PERICENTER":"70.4296","LAUNCH_DATE":"2021-12-02","COUNTRY_CODE":"US","REF_FRAME":"TEME","DECAY_DATE":null,"PERIAPSIS":"538.248","CENTER_NAME":"EARTH","ECCENTRICITY":"0.00020530","MEAN_MOTION_DDOT":"0.0000000000000","INCLINATION":"53.2173","OBJECT_TYPE":"PAYLOAD","TLE_LINE2":"2 49767  53.2173  34.0930 0002053  70.4296 289.6917 15.08865086 33402","FILE":"3510087","MEAN_ANOMALY":"289.6917","ELEMENT_SET_NO":"999","MEAN_MOTION_DOT":"0.00005458","GP_ID":"207696372","CLASSIFICATION_TYPE":"U","RA_OF_ASC_NODE":"34.0930","EPOCH":"2022-07-08T19:24:27.848160","PERIOD":"95.436","EPHEMERIS_TYPE":"0"},{"LAUNCH_DATE":"2021-12-02","ARG_OF_PERICENTER":"60.4808","COUNTRY_CODE":"US","NORAD_CAT_ID":"49768","RCS_SIZE":"LARGE","REV_AT_EPOCH":"3340","SEMIMAJOR_AXIS":"6917.812","TIME_SYSTEM":"UTC","TLE_LINE1":"1 49768U 21115AW  22189.82337226  .00003448  00000-0  23449-3 0  9993","OBJECT_ID":"2021-115AW","SITE":"AFETR","MEAN_ELEMENT_THEORY":"SGP4","BSTAR":"0.00023449000000","OBJECT_NAME":"STARLINK-3196","MEAN_MOTION":"15.08862408","APOAPSIS":"540.810","PERIOD":"95.436","EPHEMERIS_TYPE":"0","CLASSIFICATION_TYPE":"U","RA_OF_ASC_NODE":"34.0219","GP_ID":"207696623","MEAN_MOTION_DOT":"0.00003448","EPOCH":"2022-07-08T19:45:39.363264","ELEMENT_SET_NO":"999","MEAN_ANOMALY":"299.6347","FILE":"3510087","OBJECT_TYPE":"PAYLOAD","TLE_LINE2":"2 49768  53.2187  34.0219 0001638  60.4808 299.6347 15.08862408 33407","MEAN_MOTION_DDOT":"0.0000000000000","ECCENTRICITY":"0.00016380","INCLINATION":"53.2187","DECAY_DATE":null,"CENTER_NAME":"EARTH","PERIAPSIS":"538.544","REF_FRAME":"TEME"},{"APOAPSIS":"541.245","MEAN_MOTION":"15.08867233","OBJECT_NAME":"STARLINK-3208","BSTAR":"0.00063760000000","MEAN_ELEMENT_THEORY":"SGP4","SITE":"AFETR","TLE_LINE1":"1 49769U 21115AX  22189.81969985  .00009881  00000-0  63760-3 0  9993","OBJECT_ID":"2021-115AX","SEMIMAJOR_AXIS":"6917.797","TIME_SYSTEM":"UTC","REV_AT_EPOCH":"3340","RCS_SIZE":"LARGE","NORAD_CAT_ID":"49769","COUNTRY_CODE":"US","ARG_OF_PERICENTER":"78.8651","LAUNCH_DATE":"2021-12-02","REF_FRAME":"TEME","PERIAPSIS":"538.079","CENTER_NAME":"EARTH","DECAY_DATE":null,"INCLINATION":"53.2163","ECCENTRICITY":"0.00022880","MEAN_MOTION_DDOT":"0.0000000000000","TLE_LINE2":"2 49769  53.2163  34.0430 0002288  78.8651 281.2598 15.08867233 33404","OBJECT_TYPE":"PAYLOAD","FILE":"3510087","ELEMENT_SET_NO":"999","MEAN_ANOMALY":"281.2598","EPOCH":"2022-07-08T19:40:22.067040","GP_ID":"207697374","MEAN_MOTION_DOT":"0.00009881","CLASSIFICATION_TYPE":"U","RA_OF_ASC_NODE":"34.0430","EPHEMERIS_TYPE":"0","PERIOD":"95.436"},{"LAUNCH_DATE":"2021-12-02","ARG_OF_PERICENTER":"65.5634","COUNTRY_CODE":"US","SEMIMAJOR_AXIS":"6917.847","TIME_SYSTEM":"UTC","RCS_SIZE":"LARGE","NORAD_CAT_ID":"49770","REV_AT_EPOCH":"3452","MEAN_ELEMENT_THEORY":"SGP4","BSTAR":"0.00018631000000","TLE_LINE1":"1 49770U 21115AY  22189.82705813  .00002679  00000-0  18631-3 0  9999","OBJECT_ID":"2021-115AY","SITE":"AFETR","MEAN_MOTION":"15.08850982","APOAPSIS":"541.342","OBJECT_NAME":"STARLINK-3191","RA_OF_ASC_NODE":"34.0120","CLASSIFICATION_TYPE":"U","MEAN_MOTION_DOT":"0.00002679","GP_ID":"207695622","EPOCH":"2022-07-08T19:50:57.822432","PERIOD":"95.437","EPHEMERIS_TYPE":"0","FILE":"3510087","ELEMENT_SET_NO":"999","MEAN_ANOMALY":"294.5604","MEAN_MOTION_DDOT":"0.0000000000000","ECCENTRICITY":"0.00023570","INCLINATION":"53.2165","OBJECT_TYPE":"PAYLOAD","TLE_LINE2":"2 49770  53.2165  34.0120 0002357  65.5634 294.5604 15.08850982 34527","REF_FRAME":"TEME","DECAY_DATE":null,"CENTER_NAME":"EARTH","PERIAPSIS":"538.081"},{"INCLINATION":"53.2173","ECCENTRICITY":"0.00012410","MEAN_MOTION_DDOT":"0.0000000000000","TLE_LINE2":"2 49771  53.2173  33.9844 0001241  66.6472 293.4651 15.08861265 33403","OBJECT_TYPE":"PAYLOAD","REF_FRAME":"TEME","PERIAPSIS":"538.822","CENTER_NAME":"EARTH","DECAY_DATE":null,"EPOCH":"2022-07-08T19:56:16.480320","MEAN_MOTION_DOT":"0.00001747","GP_ID":"207695872","RA_OF_ASC_NODE":"33.9844","CLASSIFICATION_TYPE":"U","EPHEMERIS_TYPE":"0","PERIOD":"95.436","FILE":"3510087","MEAN_ANOMALY":"293.4651","ELEMENT_SET_NO":"999","BSTAR":"0.00012776000000","MEAN_ELEMENT_THEORY":"SGP4","SITE":"AFETR","TLE_LINE1":"1 49771U 21115AZ  22189.83074630  .00001747  00000-0  12776-3 0  9996","OBJECT_ID":"2021-115AZ","APOAPSIS":"540.539","MEAN_MOTION":"15.08861265","OBJECT_NAME":"STARLINK-3201","COUNTRY_CODE":"US","ARG_OF_PERICENTER":"66.6472","LAUNCH_DATE":"2021-12-02","SEMIMAJOR_AXIS":"6917.815","TIME_SYSTEM":"UTC","REV_AT_EPOCH":"3340","NORAD_CAT_ID":"49771","RCS_SIZE":"LARGE"},{"SITE":"AFWTR","TLE_LINE1":"1 50156U 21125A   22189.18493642  .00002338  00000-0  16498-3 0  9994","OBJECT_ID":"2021-125A","BSTAR":"0.00016498000000","MEAN_ELEMENT_THEORY":"SGP4","OBJECT_NAME":"STARLINK-3317","APOAPSIS":"541.909","MEAN_MOTION":"15.08844094","COUNTRY_CODE":"US","ARG_OF_PERICENTER":"55.4682","LAUNCH_DATE":"2021-12-18","REV_AT_EPOCH":"3426","RCS_SIZE":"LARGE","NORAD_CAT_ID":"50156","SEMIMAJOR_AXIS":"6917.868","TIME_SYSTEM":"UTC","TLE_LINE2":"2 50156  53.2174 146.8791 0003146  55.4682 304.6607 15.08844094 34265","OBJECT_TYPE":"PAYLOAD","INCLINATION":"53.2174","ECCENTRICITY":"0.00031460","MEAN_MOTION_DDOT":"0.0000000000000","PERIAPSIS":"537.557","CENTER_NAME":"EARTH","DECAY_DATE":null,"REF_FRAME":"TEME","EPHEMERIS_TYPE":"0","PERIOD":"95.437","EPOCH":"2022-07-08T04:26:18.506688","MEAN_MOTION_DOT":"0.00002338","GP_ID":"207667482","CLASSIFICATION_TYPE":"U","RA_OF_ASC_NODE":"146.8791","MEAN_ANOMALY":"304.6607","ELEMENT_SET_NO":"999","FILE":"3509949"},{"INCLINATION":"53.2146","ECCENTRICITY":"0.00032230","MEAN_MOTION_DDOT":"0.0000000000000","TLE_LINE2":"2 50157  53.2146 154.9946 0003223  50.6457 309.4820 15.08843541 34198","OBJECT_TYPE":"PAYLOAD","REF_FRAME":"TEME","PERIAPSIS":"537.505","CENTER_NAME":"EARTH","DECAY_DATE":null,"EPOCH":"2022-07-08T14:33:00.875232","GP_ID":"207696897","MEAN_MOTION_DOT":"0.00000558","RA_OF_ASC_NODE":"154.9946","CLASSIFICATION_TYPE":"U","EPHEMERIS_TYPE":"0","PERIOD":"95.437","FILE":"3510087","ELEMENT_SET_NO":"999","MEAN_ANOMALY":"309.4820","BSTAR":"0.00005319200000","MEAN_ELEMENT_THEORY":"SGP4","SITE":"AFWTR","TLE_LINE1":"1 50157U 21125B   22189.60626013  .00000558  00000-0  53192-4 0  9997","OBJECT_ID":"2021-125B","APOAPSIS":"541.964","MEAN_MOTION":"15.08843541","OBJECT_NAME":"STARLINK-3313","COUNTRY_CODE":"US","ARG_OF_PERICENTER":"50.6457","LAUNCH_DATE":"2021-12-18","TIME_SYSTEM":"UTC","SEMIMAJOR_AXIS":"6917.870","REV_AT_EPOCH":"3419","RCS_SIZE":"LARGE","NORAD_CAT_ID":"50157"},{"MEAN_ELEMENT_THEORY":"SGP4","BSTAR":"0.00006758800000","TLE_LINE1":"1 50158U 21125C   22189.59522269  .00000787  00000-0  67588-4 0  9992","OBJECT_ID":"2021-125C","SITE":"AFWTR","MEAN_MOTION":"15.08852982","APOAPSIS":"542.009","OBJECT_NAME":"STARLINK-3309","LAUNCH_DATE":"2021-12-18","ARG_OF_PERICENTER":"52.3776","COUNTRY_CODE":"US","TIME_SYSTEM":"UTC","SEMIMAJOR_AXIS":"6917.841","RCS_SIZE":"LARGE","NORAD_CAT_ID":"50158","REV_AT_EPOCH":"3421","MEAN_MOTION_DDOT":"0.0000000000000","ECCENTRICITY":"0.00033300","INCLINATION":"53.2163","OBJECT_TYPE":"PAYLOAD","TLE_LINE2":"2 50158  53.2163 155.0512 0003330  52.3776 307.7518 15.08852982 34218","REF_FRAME":"TEME","DECAY_DATE":null,"CENTER_NAME":"EARTH","PERIAPSIS":"537.402","CLASSIFICATION_TYPE":"U","RA_OF_ASC_NODE":"155.0512","MEAN_MOTION_DOT":"0.00000787","GP_ID":"207696146","EPOCH":"2022-07-08T14:17:07.240416","PERIOD":"95.437","EPHEMERIS_TYPE":"0","FILE":"3510087","ELEMENT_SET_NO":"999","MEAN_ANOMALY":"307.7518"},{"EPOCH":"2022-07-08T09:25:39.720576","CLASSIFICATION_TYPE":"U","RA_OF_ASC_NODE":"155.9546","MEAN_MOTION_DOT":"0.00000061","GP_ID":"207667732","EPHEMERIS_TYPE":"0","PERIOD":"95.437","FILE":"3509949","ELEMENT_SET_NO":"999","MEAN_ANOMALY":"312.3550","INCLINATION":"53.2151","MEAN_MOTION_DDOT":"0.0000000000000","ECCENTRICITY":"0.00033810","TLE_LINE2":"2 50159  53.2151 155.9546 0003381  47.7728 312.3550 15.08850287 34116","OBJECT_TYPE":"PAYLOAD","REF_FRAME":"TEME","CENTER_NAME":"EARTH","PERIAPSIS":"537.375","DECAY_DATE":null,"COUNTRY_CODE":"US","LAUNCH_DATE":"2021-12-18","ARG_OF_PERICENTER":"47.7728","SEMIMAJOR_AXIS":"6917.849","TIME_SYSTEM":"UTC","REV_AT_EPOCH":"3411","RCS_SIZE":"LARGE","NORAD_CAT_ID":"50159","BSTAR":"0.00002196800000","MEAN_ELEMENT_THEORY":"SGP4","SITE":"AFWTR","OBJECT_ID":"2021-125D","TLE_LINE1":"1 50159U 21125D   22189.39282084  .00000061  00000-0  21968-4 0  9996","APOAPSIS":"542.053","MEAN_MOTION":"15.08850287","OBJECT_NAME":"STARLINK-3297"},{"INCLINATION":"53.2170","ECCENTRICITY":"0.00027690","MEAN_MOTION_DDOT":"0.0000000000000","TLE_LINE2":"2 50160  53.2170 155.0372 0002769  50.5308 309.5929 15.08845308 34152","OBJECT_TYPE":"PAYLOAD","REF_FRAME":"TEME","PERIAPSIS":"537.814","CENTER_NAME":"EARTH","DECAY_DATE":null,"EPOCH":"2022-07-08T14:22:24.902112","MEAN_MOTION_DOT":"0.00000493","GP_ID":"207696647","RA_OF_ASC_NODE":"155.0372","CLASSIFICATION_TYPE":"U","EPHEMERIS_TYPE":"0","PERIOD":"95.437","FILE":"3510087","ELEMENT_SET_NO":"999","MEAN_ANOMALY":"309.5929","BSTAR":"0.00004906600000","MEAN_ELEMENT_THEORY":"SGP4","SITE":"AFWTR","OBJECT_ID":"2021-125E","TLE_LINE1":"1 50160U 21125E   22189.59889933  .00000493  00000-0  49066-4 0  9994","APOAPSIS":"541.645","MEAN_MOTION":"15.08845308","OBJECT_NAME":"STARLINK-3288","COUNTRY_CODE":"US","ARG_OF_PERICENTER":"50.5308","LAUNCH_DATE":"2021-12-18","TIME_SYSTEM":"UTC","SEMIMAJOR_AXIS":"6917.864","REV_AT_EPOCH":"3415","NORAD_CAT_ID":"50160","RCS_SIZE":"LARGE"}];
